ONEWEB-0350             
1 49214U 21083AE  25204.56673107  .00000357  00000+0  94299-3 0  9992
2 49214  87.8959  25.5088 0001502  84.1394 275.9906 13.13472004187798
ONEWEB-0351             
1 49215U 21083AF  25204.62625366 -.00002485  00000+0 -61441-2 0  9992
2 49215  87.9288 339.8865 0002206  75.1849 284.9529 13.20786682193400
ONEWEB-0352             
1 49216U 21083AG  25204.54725992 -.00000020  00000+0 -89986-4 0  9999
2 49216  87.8958  25.5543 0002078  79.1802 280.9561 13.13469274187880
ONEWEB-0354             
1 49217U 21083AH  25204.42435121  .00000120  00000+0  26219-3 0  9997
2 49217  87.9287 339.9248 0001557  95.7165 264.4146 13.20771014193416
ONEWEB-0355             
1 49218U 21083AJ  25204.57618282  .00000319  00000+0  83792-3 0  9994
2 49218  87.8963  25.5471 0001734  82.4709 277.6617 13.13470307187760
ONEWEB-0357             
1 49219U 21083AK  25204.42119924 -.00000021  00000+0 -83393-4 0  9998
2 49219  87.9279 339.9302 0001861  91.3102 268.8244 13.20770134193410
ONEWEB-0332             
1 49279U 21090A   25204.46592304  .00000017  00000+0  12295-4 0  9999
2 49279  87.9056 355.1269 0002069  92.8737 267.2630 13.14503414184399
ONEWEB-0347             
1 49280U 21090B   25204.41172525  .00000101  00000+0  21557-3 0  9999
2 49280  87.9287 339.9417 0002229 100.7615 259.3770 13.20770592187642
